{"fetched_at":"2026-07-12T07:15:20.031Z","source":"https://celestrak.org/NORAD/elements/gp.php?GROUP=oneweb&FORMAT=JSON","constellation":"oneweb","records":[{"OBJECT_NAME":"ONEWEB-0685","OBJECT_ID":"2022-166AP","EPOCH":"2026-07-11T14:49:42.343680","CLASSIFICATION_TYPE":"U","MEAN_MOTION":13.21847817,"ECCENTRICITY":0.00018522,"INCLINATION":87.9234,"RA_OF_ASC_NODE":239.1179,"ARG_OF_PERICENTER":89.69,"MEAN_ANOMALY":270.4447,"EPHEMERIS_TYPE":0,"NORAD_CAT_ID":54679,"ELEMENT_SET_NO":999,"REV_AT_EPOCH":17464,"BSTAR":0.000024726969,"MEAN_MOTION_DOT":2.3e-7,"MEAN_MOTION_DDOT":0},{"OBJECT_NAME":"ONEWEB-0712","OBJECT_ID":"2022-166AQ","EPOCH":"2026-07-11T14:34:07.231296","CLASSIFICATION_TYPE":"U","MEAN_MOTION":13.16595634,"ECCENTRICITY":0.00017083,"INCLINATION":87.9085,"RA_OF_ASC_NODE":223.9234,"ARG_OF_PERICENTER":108.3184,"MEAN_ANOMALY":251.8133,"EPHEMERIS_TYPE":0,"NORAD_CAT_ID":54680,"ELEMENT_SET_NO":999,"REV_AT_EPOCH":17527,"BSTAR":0.00042446361,"MEAN_MOTION_DOT":0.00000175,"MEAN_MOTION_DDOT":0},{"OBJECT_NAME":"ONEWEB-0714","OBJECT_ID":"2022-166AR","EPOCH":"2026-07-11T14:57:26.547552","CLASSIFICATION_TYPE":"U","MEAN_MOTION":13.21825037,"ECCENTRICITY":0.00020736,"INCLINATION":87.9235,"RA_OF_ASC_NODE":239.1153,"ARG_OF_PERICENTER":105.8875,"MEAN_ANOMALY":254.2488,"EPHEMERIS_TYPE":0,"NORAD_CAT_ID":54681,"ELEMENT_SET_NO":999,"REV_AT_EPOCH":17476,"BSTAR":-0.00020470462,"MEAN_MOTION_DOT":-7.2e-7,"MEAN_MOTION_DDOT":0},{"OBJECT_NAME":"ONEWEB-0532","OBJECT_ID":"2023-004A","EPOCH":"2026-07-11T22:32:58.664832","CLASSIFICATION_TYPE":"U","MEAN_MOTION":13.17649618,"ECCENTRICITY":0.00019275,"INCLINATION":87.914,"RA_OF_ASC_NODE":0.9397,"ARG_OF_PERICENTER":80.5788,"MEAN_ANOMALY":279.5562,"EPHEMERIS_TYPE":0,"NORAD_CAT_ID":55140,"ELEMENT_SET_NO":999,"REV_AT_EPOCH":17084,"BSTAR":0.00027161599,"MEAN_MOTION_DOT":0.00000118,"MEAN_MOTION_DDOT":0},{"OBJECT_NAME":"ONEWEB-0533","OBJECT_ID":"2023-004B","EPOCH":"2026-07-11T20:28:44.938560","CLASSIFICATION_TYPE":"U","MEAN_MOTION":13.12443517,"ECCENTRICITY":0.00016299,"INCLINATION":87.8958,"RA_OF_ASC_NODE":345.7652,"ARG_OF_PERICENTER":92.7811,"MEAN_ANOMALY":267.3504,"EPHEMERIS_TYPE":0,"NORAD_CAT_ID":55141,"ELEMENT_SET_NO":999,"REV_AT_EPOCH":17129,"BSTAR":-0.0002677662,"MEAN_MOTION_DOT":-8.4e-7,"MEAN_MOTION_DDOT":0},{"OBJECT_NAME":"ONEWEB-0541","OBJECT_ID":"2023-004C","EPOCH":"2026-07-11T12:30:12.049920","CLASSIFICATION_TYPE":"U","MEAN_MOTION":13.11414482,"ECCENTRICITY":0.00020415,"INCLINATION":87.8885,"RA_OF_ASC_NODE":16.2133,"ARG_OF_PERICENTER":90.921,"MEAN_ANOMALY":269.2152,"EPHEMERIS_TYPE":0,"NORAD_CAT_ID":55142,"ELEMENT_SET_NO":999,"REV_AT_EPOCH":16913,"BSTAR":-0.00012107833,"MEAN_MOTION_DOT":-3e-7,"MEAN_MOTION_DDOT":0},{"OBJECT_NAME":"ONEWEB-0543","OBJECT_ID":"2023-004D","EPOCH":"2026-07-11T19:46:10.497504","CLASSIFICATION_TYPE":"U","MEAN_MOTION":13.18686464,"ECCENTRICITY":0.00018405,"INCLINATION":87.9183,"RA_OF_ASC_NODE":330.5685,"ARG_OF_PERICENTER":104.3349,"MEAN_ANOMALY":255.7988,"EPHEMERIS_TYPE":0,"NORAD_CAT_ID":55143,"ELEMENT_SET_NO":999,"REV_AT_EPOCH":17294,"BSTAR":-0.000004675769,"MEAN_MOTION_DOT":1.1e-7,"MEAN_MOTION_DDOT":0},{"OBJECT_NAME":"ONEWEB-0544","OBJECT_ID":"2023-004E","EPOCH":"2026-07-11T19:36:27.655200","CLASSIFICATION_TYPE":"U","MEAN_MOTION":13.18686426,"ECCENTRICITY":0.00020484,"INCLINATION":87.9184,"RA_OF_ASC_NODE":330.5695,"ARG_OF_PERICENTER":102.4433,"MEAN_ANOMALY":257.6928,"EPHEMERIS_TYPE":0,"NORAD_CAT_ID":55144,"ELEMENT_SET_NO":999,"REV_AT_EPOCH":17294,"BSTAR":-0.0001855066,"MEAN_MOTION_DOT":-6e-7,"MEAN_MOTION_DDOT":0},{"OBJECT_NAME":"ONEWEB-0560","OBJECT_ID":"2023-004F","EPOCH":"2026-07-11T19:26:44.770560","CLASSIFICATION_TYPE":"U","MEAN_MOTION":13.18683684,"ECCENTRICITY":0.00020503,"INCLINATION":87.9173,"RA_OF_ASC_NODE":330.5602,"ARG_OF_PERICENTER":106.1097,"MEAN_ANOMALY":254.0261,"EPHEMERIS_TYPE":0,"NORAD_CAT_ID":55145,"ELEMENT_SET_NO":999,"REV_AT_EPOCH":17295,"BSTAR":-0.00009184441,"MEAN_MOTION_DOT":-2.3e-7,"MEAN_MOTION_DDOT":0},{"OBJECT_NAME":"ONEWEB-0565","OBJECT_ID":"2023-004G","EPOCH":"2026-07-11T19:17:02.806080","CLASSIFICATION_TYPE":"U","MEAN_MOTION":13.18687638,"ECCENTRICITY":0.00019379,"INCLINATION":87.9139,"RA_OF_ASC_NODE":330.5856,"ARG_OF_PERICENTER":94.8117,"MEAN_ANOMALY":265.3237,"EPHEMERIS_TYPE":0,"NORAD_CAT_ID":55146,"ELEMENT_SET_NO":999,"REV_AT_EPOCH":17294,"BSTAR":0.00023279326,"MEAN_MOTION_DOT":0.00000105,"MEAN_MOTION_DDOT":0},{"OBJECT_NAME":"ONEWEB-0567","OBJECT_ID":"2023-004H","EPOCH":"2026-07-11T20:56:35.471328","CLASSIFICATION_TYPE":"U","MEAN_MOTION":13.18687523,"ECCENTRICITY":0.00022528,"INCLINATION":87.9185,"RA_OF_ASC_NODE":330.5597,"ARG_OF_PERICENTER":98.457,"MEAN_ANOMALY":261.6817,"EPHEMERIS_TYPE":0,"NORAD_CAT_ID":55147,"ELEMENT_SET_NO":999,"REV_AT_EPOCH":17295,"BSTAR":0.00015312916,"MEAN_MOTION_DOT":7.3e-7,"MEAN_MOTION_DDOT":0},{"OBJECT_NAME":"ONEWEB-0569","OBJECT_ID":"2023-004J","EPOCH":"2026-07-11T20:12:29.743488","CLASSIFICATION_TYPE":"U","MEAN_MOTION":13.13471781,"ECCENTRICITY":0.00026722,"INCLINATION":87.8985,"RA_OF_ASC_NODE":315.3145,"ARG_OF_PERICENTER":114.1034,"MEAN_ANOMALY":246.0375,"EPHEMERIS_TYPE":0,"NORAD_CAT_ID":55148,"ELEMENT_SET_NO":999,"REV_AT_EPOCH":17341,"BSTAR":-0.00044037975,"MEAN_MOTION_DOT":-0.00000148,"MEAN_MOTION_DDOT":0},{"OBJECT_NAME":"ONEWEB-0570","OBJECT_ID":"2023-004K","EPOCH":"2026-07-11T20:44:26.953440","CLASSIFICATION_TYPE":"U","MEAN_MOTION":13.18687125,"ECCENTRICITY":0.00021068,"INCLINATION":87.9183,"RA_OF_ASC_NODE":330.5589,"ARG_OF_PERICENTER":86.6398,"MEAN_ANOMALY":273.4975,"EPHEMERIS_TYPE":0,"NORAD_CAT_ID":55149,"ELEMENT_SET_NO":999,"REV_AT_EPOCH":17294,"BSTAR":0.00016248038,"MEAN_MOTION_DOT":7.7e-7,"MEAN_MOTION_DDOT":0},{"OBJECT_NAME":"ONEWEB-0571","OBJECT_ID":"2023-004L","EPOCH":"2026-07-11T20:34:45.189408","CLASSIFICATION_TYPE":"U","MEAN_MOTION":13.18685711,"ECCENTRICITY":0.00031374,"INCLINATION":87.9184,"RA_OF_ASC_NODE":330.5598,"ARG_OF_PERICENTER":103.5153,"MEAN_ANOMALY":256.6328,"EPHEMERIS_TYPE":0,"NORAD_CAT_ID":55150,"ELEMENT_SET_NO":999,"REV_AT_EPOCH":17295,"BSTAR":-0.000089045296,"MEAN_MOTION_DOT":-2.2e-7,"MEAN_MOTION_DDOT":0},{"OBJECT_NAME":"ONEWEB-0572","OBJECT_ID":"2023-004M","EPOCH":"2026-07-11T12:21:50.736384","CLASSIFICATION_TYPE":"U","MEAN_MOTION":13.1765086,"ECCENTRICITY":0.00020059,"INCLINATION":87.9138,"RA_OF_ASC_NODE":1.0251,"ARG_OF_PERICENTER":92.2805,"MEAN_ANOMALY":267.8556,"EPHEMERIS_TYPE":0,"NORAD_CAT_ID":55151,"ELEMENT_SET_NO":999,"REV_AT_EPOCH":17068,"BSTAR":0.000026415019,"MEAN_MOTION_DOT":2.3e-7,"MEAN_MOTION_DDOT":0},{"OBJECT_NAME":"ONEWEB-0573","OBJECT_ID":"2023-004N","EPOCH":"2026-07-11T20:25:00.495552","CLASSIFICATION_TYPE":"U","MEAN_MOTION":13.18687484,"ECCENTRICITY":0.0002796,"INCLINATION":87.9186,"RA_OF_ASC_NODE":330.5629,"ARG_OF_PERICENTER":98.3824,"MEAN_ANOMALY":261.7625,"EPHEMERIS_TYPE":0,"NORAD_CAT_ID":55152,"ELEMENT_SET_NO":999,"REV_AT_EPOCH":17294,"BSTAR":-0.000073626674,"MEAN_MOTION_DOT":-1.6e-7,"MEAN_MOTION_DDOT":0}]}
